ONEWEB-0385             
1 49311U 21090AJ  21294.58334491 -.00049764  00000-0 -11604-2 0  9991
2 49311  87.3956 291.1385 0008866 218.8716  63.6922 15.42444281  2250
ONEWEB-0386             
1 49312U 21090AK  21294.58334491 -.00053976  00000-0 -13500-2 0  9999
2 49312  87.3956 291.1448 0004204 227.9477   1.9008 15.40377334  2227
ONEWEB-0387             
1 49313U 21090AL  21294.58334491 -.00050658  00000-0 -12244-2 0  9998
2 49313  87.3973 291.1427 0006965 251.5047   4.1556 15.41385158  2256
ONEWEB-0388             
1 49314U 21090AM  21294.58334491 -.00056252  00000-0 -15025-2 0  9995
2 49314  87.3980 291.1547 0004904 266.3085 272.5950 15.38369676  2224
